{
  "norad_id": 64375,
  "name": "STARLINK-11738 [DTC]",
  "history": [
    {
      "epoch": "2026-03-28T16:14:08.659104Z",
      "apogee_km": 358.35282358243876,
      "perigee_km": 353.5395702766018,
      "latitude_deg": -4.545708593811287e-08,
      "longitude_deg": -99.10439358058913,
      "height_km": 355.1919769990002,
      "semi_major_axis_km": 6734.0831969295195,
      "eccentricity": 0.00035738,
      "inclination_deg": 42.9989,
      "raan_deg": 330.5252,
      "arg_perigee_deg": 282.6745,
      "mean_anomaly_deg": 77.3723,
      "mean_motion_rev_day": 15.71032052
    },
    {
      "epoch": "2026-03-30T01:48:28.026432Z",
      "apogee_km": 357.53614090916653,
      "perigee_km": 355.1999411104407,
      "latitude_deg": -1.9293097718549706e-05,
      "longitude_deg": 107.50523420748532,
      "height_km": 356.3212165890219,
      "semi_major_axis_km": 6734.505041009804,
      "eccentricity": 0.00017345,
      "inclination_deg": 43.0009,
      "raan_deg": 322.0943,
      "arg_perigee_deg": 261.1157,
      "mean_anomaly_deg": 98.9514,
      "mean_motion_rev_day": 15.70884442
    },
    {
      "epoch": "2026-03-30T07:54:42.869376Z",
      "apogee_km": 357.1462902631456,
      "perigee_km": 355.5688022606282,
      "latitude_deg": 1.808665706174446e-05,
      "longitude_deg": 14.160541334521923,
      "height_km": 355.8554657235526,
      "semi_major_axis_km": 6734.494546261886,
      "eccentricity": 0.00011712,
      "inclination_deg": 43.0008,
      "raan_deg": 320.5621,
      "arg_perigee_deg": 290.3582,
      "mean_anomaly_deg": 69.716,
      "mean_motion_rev_day": 15.70888114
    },
    {
      "epoch": "2026-03-30T21:38:44.948832Z",
      "apogee_km": 356.9321485659302,
      "perigee_km": 355.74162827193504,
      "latitude_deg": 3.984558112769524e-05,
      "longitude_deg": 164.13736911783826,
      "height_km": 356.4934811823634,
      "semi_major_axis_km": 6734.473888418933,
      "eccentricity": 8.839e-05,
      "inclination_deg": 43.0,
      "raan_deg": 317.1116,
      "arg_perigee_deg": 229.7198,
      "mean_anomaly_deg": 130.3593,
      "mean_motion_rev_day": 15.70895342
    },
    {
      "epoch": "2026-03-31T00:41:51.997920Z",
      "apogee_km": 357.3480007799253,
      "perigee_km": 355.2943950970466,
      "latitude_deg": 4.392354119265183e-06,
      "longitude_deg": 117.46692080193743,
      "height_km": 356.2042207839639,
      "semi_major_axis_km": 6734.458197938486,
      "eccentricity": 0.00015247,
      "inclination_deg": 43.0004,
      "raan_deg": 316.3459,
      "arg_perigee_deg": 263.8245,
      "mean_anomaly_deg": 96.2449,
      "mean_motion_rev_day": 15.70900832
    },
    {
      "epoch": "2026-04-01T20:57:05.655168Z",
      "apogee_km": 357.967480740007,
      "perigee_km": 354.6608652140758,
      "latitude_deg": -8.598727144089091e-06,
      "longitude_deg": 160.72536546207832,
      "height_km": 356.6487716233665,
      "semi_major_axis_km": 6734.451172977041,
      "eccentricity": 0.0002455,
      "inclination_deg": 43.0005,
      "raan_deg": 305.2287,
      "arg_perigee_deg": 250.1468,
      "mean_anomaly_deg": 109.9135,
      "mean_motion_rev_day": 15.7090329
    },
    {
      "epoch": "2026-04-01T20:57:05.656032Z",
      "apogee_km": 357.967413395495,
      "perigee_km": 354.6609325585878,
      "latitude_deg": -9.33790645975374e-06,
      "longitude_deg": 160.7253610640152,
      "height_km": 356.6487487556914,
      "semi_major_axis_km": 6734.451172977041,
      "eccentricity": 0.00024549,
      "inclination_deg": 43.0005,
      "raan_deg": 305.2287,
      "arg_perigee_deg": 250.1468,
      "mean_anomaly_deg": 109.9135,
      "mean_motion_rev_day": 15.7090329
    },
    {
      "epoch": "2026-04-03T14:09:12.053376Z",
      "apogee_km": 357.3982421687688,
      "perigee_km": 355.55295831630247,
      "latitude_deg": -2.127044225733905e-05,
      "longitude_deg": -109.34090330793336,
      "height_km": 356.1577889406277,
      "semi_major_axis_km": 6734.612600242535,
      "eccentricity": 0.000137,
      "inclination_deg": 42.9986,
      "raan_deg": 294.8812,
      "arg_perigee_deg": 275.6031,
      "mean_anomaly_deg": 84.468,
      "mean_motion_rev_day": 15.70846809
    },
    {
      "epoch": "2026-04-04T13:02:36.357504Z",
      "apogee_km": 357.16078593953443,
      "perigee_km": 354.6329643034924,
      "latitude_deg": 2.9110310810049748e-06,
      "longitude_deg": -99.38020763411035,
      "height_km": 356.2052060434445,
      "semi_major_axis_km": 6734.033875121513,
      "eccentricity": 0.00018769,
      "inclination_deg": 42.9979,
      "raan_deg": 289.1332,
      "arg_perigee_deg": 244.9086,
      "mean_anomaly_deg": 115.1587,
      "mean_motion_rev_day": 15.71049312
    },
    {
      "epoch": "2026-04-05T13:27:34.498080Z",
      "apogee_km": 357.7766931479946,
      "perigee_km": 354.81987199282867,
      "latitude_deg": 8.93779316413329e-07,
      "longitude_deg": -112.75829928019722,
      "height_km": 355.749897709218,
      "semi_major_axis_km": 6734.435282570411,
      "eccentricity": 0.00021953,
      "inclination_deg": 42.999,
      "raan_deg": 283.0001,
      "arg_perigee_deg": 282.5537,
      "mean_anomaly_deg": 77.5085,
      "mean_motion_rev_day": 15.7090885
    },
    {
      "epoch": "2026-04-05T19:33:48.517632Z",
      "apogee_km": 357.4419221433345,
      "perigee_km": 355.0458294277305,
      "latitude_deg": -5.102977652675302e-05,
      "longitude_deg": 153.89965206105896,
      "height_km": 356.0094316559696,
      "semi_major_axis_km": 6734.380875785532,
      "eccentricity": 0.0001779,
      "inclination_deg": 42.9987,
      "raan_deg": 281.4672,
      "arg_perigee_deg": 270.337,
      "mean_anomaly_deg": 89.7293,
      "mean_motion_rev_day": 15.70927887
    },
    {
      "epoch": "2026-04-05T19:33:48.519360Z",
      "apogee_km": 357.4421915185694,
      "perigee_km": 355.0455600524947,
      "latitude_deg": -4.788475492123421e-05,
      "longitude_deg": 153.8996481951791,
      "height_km": 356.00943007167865,
      "semi_major_axis_km": 6734.380875785532,
      "eccentricity": 0.00017794,
      "inclination_deg": 42.9987,
      "raan_deg": 281.4672,
      "arg_perigee_deg": 270.337,
      "mean_anomaly_deg": 89.7293,
      "mean_motion_rev_day": 15.70927887
    },
    {
      "epoch": "2026-04-07T12:45:54.571968Z",
      "apogee_km": 358.761849536093,
      "perigee_km": 354.34443157909936,
      "latitude_deg": -2.848514036314704e-05,
      "longitude_deg": -116.16754761327297,
      "height_km": 356.016673669873,
      "semi_major_axis_km": 6734.690140557596,
      "eccentricity": 0.00032796,
      "inclination_deg": 42.9988,
      "raan_deg": 271.1173,
      "arg_perigee_deg": 278.0718,
      "mean_anomaly_deg": 81.9777,
      "mean_motion_rev_day": 15.7081968
    },
    {
      "epoch": "2026-04-08T11:39:18.736992Z",
      "apogee_km": 357.86343686435066,
      "perigee_km": 354.77838169610914,
      "latitude_deg": 4.3392963657679445e-05,
      "longitude_deg": -106.20512221647691,
      "height_km": 356.29278776491896,
      "semi_major_axis_km": 6734.45790928023,
      "eccentricity": 0.00022905,
      "inclination_deg": 43.0001,
      "raan_deg": 265.3704,
      "arg_perigee_deg": 262.5957,
      "mean_anomaly_deg": 97.4651,
      "mean_motion_rev_day": 15.70900933
    },
    {
      "epoch": "2026-04-08T20:48:40.082112Z",
      "apogee_km": 358.2005607379242,
      "perigee_km": 354.4710097094676,
      "latitude_deg": -4.7601398721640456e-05,
      "longitude_deg": 113.78162092820426,
      "height_km": 356.2789012048106,
      "semi_major_axis_km": 6734.472785223696,
      "eccentricity": 0.0002769,
      "inclination_deg": 43.0028,
      "raan_deg": 263.0722,
      "arg_perigee_deg": 264.7888,
      "mean_anomaly_deg": 95.2663,
      "mean_motion_rev_day": 15.70895728
    },
    {
      "epoch": "2026-04-10T10:57:39.616128Z",
      "apogee_km": 357.62071209895566,
      "perigee_km": 354.90405538755294,
      "latitude_deg": 5.474791602784993e-05,
      "longitude_deg": -109.61519225502249,
      "height_km": 356.24179354653194,
      "semi_major_axis_km": 6734.399383743254,
      "eccentricity": 0.0002017,
      "inclination_deg": 42.999,
      "raan_deg": 253.4901,
      "arg_perigee_deg": 261.2493,
      "mean_anomaly_deg": 98.8147,
      "mean_motion_rev_day": 15.70921411
    },
    {
      "epoch": "2026-04-11T19:00:25.104672Z",
      "apogee_km": 358.4172160378557,
      "perigee_km": 354.3334077719164,
      "latitude_deg": 2.4791693988730012e-05,
      "longitude_deg": 120.33135648458459,
      "height_km": 356.5066663445169,
      "semi_major_axis_km": 6734.512311904886,
      "eccentricity": 0.0003032,
      "inclination_deg": 43.0027,
      "raan_deg": 245.4423,
      "arg_perigee_deg": 259.9163,
      "mean_anomaly_deg": 100.1363,
      "mean_motion_rev_day": 15.70881898
    },
    {
      "epoch": "2026-04-12T19:25:22.989504Z",
      "apogee_km": 357.54758742847935,
      "perigee_km": 355.41486852804246,
      "latitude_deg": 2.1392844822081166e-05,
      "longitude_deg": 106.95473258739482,
      "height_km": 356.1136860605369,
      "semi_major_axis_km": 6734.618227978261,
      "eccentricity": 0.00015834,
      "inclination_deg": 42.9998,
      "raan_deg": 239.3096,
      "arg_perigee_deg": 277.5507,
      "mean_anomaly_deg": 82.5181,
      "mean_motion_rev_day": 15.7084484
    },
    {
      "epoch": "2026-04-14T09:34:22.185696Z",
      "apogee_km": 358.6552576739268,
      "perigee_km": 354.2702250903176,
      "latitude_deg": 1.831790030844829e-05,
      "longitude_deg": -116.44087605606386,
      "height_km": 355.67848051260876,
      "semi_major_axis_km": 6734.5997413821215,
      "eccentricity": 0.00032556,
      "inclination_deg": 43.0009,
      "raan_deg": 229.7274,
      "arg_perigee_deg": 284.7478,
      "mean_anomaly_deg": 75.3029,
      "mean_motion_rev_day": 15.70851308
    }
  ]
}